0 SL-16 DEB
1 23708U 95058E   13284.04367777  .00000122  00000-0  14956-3 0  5973
2 23708 071.0503 140.0839 0185309 053.0820 058.9892 13.75704393901055
0 SL-16 DEB
1 23708U 95058E   13286.73721194  .00000106  00000-0  13489-3 0  5981
2 23708 071.0499 134.7973 0185421 049.1960 078.8450 13.75705270901421
0 SL-16 DEB
1 23708U 95058E   13288.77230847  .00000078  00000-0  10930-3 0  5994
2 23708 071.0498 130.8027 0185511 046.2582 077.7634 13.75706184901703
0 SL-16 DEB
1 23708U 95058E   13290.95058392  .00000045  00000-0  79649-4 0  6000
2 23708 071.0500 126.5272 0185610 043.1181 065.7849 13.75706798902002
0 SL-16 DEB
1 23708U 95058E   13293.20654113  .00000063  00000-0  96127-4 0  6015
2 23708 071.0502 122.0990 0185708 039.8696 078.5325 13.75707151902312
0 SL-16 DEB
1 23708U 95058E   13295.51564968  .00000084  00000-0  11465-3 0  6024
2 23708 071.0502 117.5666 0185804 036.5451 354.5172 13.75707513902635
